[{"OBJECT_NAME":"ONEWEB-0017","OBJECT_ID":"2020-008B","EPOCH":"2026-03-09T21:18:16.838496","MEAN_MOTION":13.10370318,"ECCENTRICITY":0.00020566,"INCLINATION":87.8769,"RA_OF_ASC_NODE":56.0409,"ARG_OF_PERICENTER":90.0136,"MEAN_ANOMALY":270.1227,"EPHEMERIS_TYPE":0,"CLASSIFICATION_TYPE":"U","NORAD_CAT_ID":45132,"ELEMENT_SET_NO":999,"REV_AT_EPOCH":29494,"BSTAR":0.00062410881,"MEAN_MOTION_DOT":2.31e-6,"MEAN_MOTION_DDOT":0},{"OBJECT_NAME":"FENGYUN 1C DEB","OBJECT_ID":"1999-025PK","EPOCH":"2026-03-09T22:29:16.181376","MEAN_MOTION":13.48386976,"ECCENTRICITY":0.03142477,"INCLINATION":99.6526,"RA_OF_ASC_NODE":75.3498,"ARG_OF_PERICENTER":295.8939,"MEAN_ANOMALY":90.923,"EPHEMERIS_TYPE":0,"CLASSIFICATION_TYPE":"U","NORAD_CAT_ID":30058,"ELEMENT_SET_NO":999,"REV_AT_EPOCH":94023,"BSTAR":0.0010480595,"MEAN_MOTION_DOT":8.35e-6,"MEAN_MOTION_DDOT":0}]
